IRIDIUM 91 [+]          
1 27372U 02005A   17346.15827912  .00000099  00000-0  28254-4 0  9997
2 27372  86.3984 212.7770 0001903  99.0182  13.3452 14.34210710837132
